start=new Date('2022-07-07T00:00:00.000Z').valueOf();
sats=[{"DECAY_DATE":null,"OBJECT_TYPE":"PAYLOAD","EPOCH":"2022-07-06T09:14:16.453824","MEAN_MOTION_DDOT":"0.0000000000000","TIME_SYSTEM":"UTC","ARG_OF_PERICENTER":"67.1181","TLE_LINE2":"2 48138  53.0559  77.4759 0001587  67.1181 292.9975 15.06397271 70109","OBJECT_ID":"2021-027AY","RCS_SIZE":"LARGE","SEMIMAJOR_AXIS":"6925.357","CENTER_NAME":"EARTH","BSTAR":"0.00014006000000","MEAN_MOTION_DOT":"0.00001805","GP_ID":"207538185","PERIAPSIS":"546.123","TLE_LINE1":"1 48138U 21027AY  22187.38491266  .00001805  00000-0  14006-3 0  9993","ECCENTRICITY":"0.00015870","MEAN_ANOMALY":"292.9975","REF_FRAME":"TEME","MEAN_MOTION":"15.06397271","RA_OF_ASC_NODE":"77.4759","FILE":"3508782","PERIOD":"95.592","NORAD_CAT_ID":"48138","CLASSIFICATION_TYPE":"U","APOAPSIS":"548.321","ELEMENT_SET_NO":"999","REV_AT_EPOCH":"7010","MEAN_ELEMENT_THEORY":"SGP4","COUNTRY_CODE":"US","INCLINATION":"53.0559","SITE":"AFETR","EPHEMERIS_TYPE":"0","LAUNCH_DATE":"2021-04-07","OBJECT_NAME":"STARLINK-2481"},{"COUNTRY_CODE":"US","FILE":"3508855","PERIOD":"95.592","NORAD_CAT_ID":"48139","CLASSIFICATION_TYPE":"U","ELEMENT_SET_NO":"999","APOAPSIS":"548.415","MEAN_ELEMENT_THEORY":"SGP4","REV_AT_EPOCH":"6998","EPHEMERIS_TYPE":"0","LAUNCH_DATE":"2021-04-07","OBJECT_NAME":"STARLINK-2482","INCLINATION":"53.0562","SITE":"AFETR","TLE_LINE1":"1 48139U 21027AZ  22187.37570211  .00002099  00000-0  15978-3 0  9996","GP_ID":"207544075","PERIAPSIS":"546.032","REF_FRAME":"TEME","MEAN_MOTION":"15.06396722","RA_OF_ASC_NODE":"57.5131","MEAN_ANOMALY":"286.8090","ECCENTRICITY":"0.00017200","RCS_SIZE":"LARGE","SEMIMAJOR_AXIS":"6925.359","CENTER_NAME":"EARTH","ARG_OF_PERICENTER":"73.3087","TIME_SYSTEM":"UTC","TLE_LINE2":"2 48139  53.0562  57.5131 0001720  73.3087 286.8090 15.06396722 69984","OBJECT_ID":"2021-027AZ","BSTAR":"0.00015978000000","MEAN_MOTION_DOT":"0.00002099","DECAY_DATE":null,"MEAN_MOTION_DDOT":"0.0000000000000","OBJECT_TYPE":"PAYLOAD","EPOCH":"2022-07-06T09:01:00.662304"},{"MEAN_MOTION":"15.06387982","RA_OF_ASC_NODE":"75.8667","REF_FRAME":"TEME","MEAN_ANOMALY":"288.4582","ECCENTRICITY":"0.00012820","TLE_LINE1":"1 48140U 21027BA  22187.74151318  .00003263  00000-0  23789-3 0  9995","PERIAPSIS":"546.363","GP_ID":"207544089","OBJECT_NAME":"STARLINK-2483","LAUNCH_DATE":"2021-04-07","EPHEMERIS_TYPE":"0","SITE":"AFETR","INCLINATION":"53.0547","COUNTRY_CODE":"US","MEAN_ELEMENT_THEORY":"SGP4","REV_AT_EPOCH":"6975","ELEMENT_SET_NO":"999","APOAPSIS":"548.138","CLASSIFICATION_TYPE":"U","PERIOD":"95.593","NORAD_CAT_ID":"48140","FILE":"3508856","MEAN_MOTION_DDOT":"0.0000000000000","EPOCH":"2022-07-06T17:47:46.738752","OBJECT_TYPE":"PAYLOAD","DECAY_DATE":null,"MEAN_MOTION_DOT":"0.00003263","BSTAR":"0.00023789000000","CENTER_NAME":"EARTH","SEMIMAJOR_AXIS":"6925.385","RCS_SIZE":"LARGE","OBJECT_ID":"2021-027BA","TLE_LINE2":"2 48140  53.0547  75.8667 0001282  71.6546 288.4582 15.06387982 69757","ARG_OF_PERICENTER":"71.6546","TIME_SYSTEM":"UTC"},{"MEAN_ANOMALY":"288.0459","ECCENTRICITY":"0.00019300","REF_FRAME":"TEME","MEAN_MOTION":"15.06399480","RA_OF_ASC_NODE":"77.2383","GP_ID":"207538435","PERIAPSIS":"545.879","TLE_LINE1":"1 48141U 21027BB  22187.43283065  .00002622  00000-0  19489-3 0  9997","INCLINATION":"53.0532","SITE":"AFETR","EPHEMERIS_TYPE":"0","OBJECT_NAME":"STARLINK-2484","LAUNCH_DATE":"2021-04-07","NORAD_CAT_ID":"48141","PERIOD":"95.592","CLASSIFICATION_TYPE":"U","FILE":"3508782","MEAN_ELEMENT_THEORY":"SGP4","REV_AT_EPOCH":"7012","ELEMENT_SET_NO":"999","APOAPSIS":"548.552","COUNTRY_CODE":"US","EPOCH":"2022-07-06T10:23:16.568160","OBJECT_TYPE":"PAYLOAD","MEAN_MOTION_DDOT":"0.0000000000000","DECAY_DATE":null,"MEAN_MOTION_DOT":"0.00002622","BSTAR":"0.00019489000000","ARG_OF_PERICENTER":"72.0741","TIME_SYSTEM":"UTC","OBJECT_ID":"2021-027BB","TLE_LINE2":"2 48141  53.0532  77.2383 0001930  72.0741 288.0459 15.06399480 70123","RCS_SIZE":"LARGE","SEMIMAJOR_AXIS":"6925.350","CENTER_NAME":"EARTH"},{"CENTER_NAME":"EARTH","SEMIMAJOR_AXIS":"6925.350","RCS_SIZE":"LARGE","TLE_LINE2":"2 48142  53.0556  55.1493 0001366  86.8711 273.2435 15.06399465 70066","OBJECT_ID":"2021-027BC","ARG_OF_PERICENTER":"86.8711","TIME_SYSTEM":"UTC","MEAN_MOTION_DOT":"0.00006419","BSTAR":"0.00044946000000","DECAY_DATE":null,"MEAN_MOTION_DDOT":"0.0000000000000","EPOCH":"2022-07-06T21:40:02.373600","OBJECT_TYPE":"PAYLOAD","COUNTRY_CODE":"US","APOAPSIS":"548.161","ELEMENT_SET_NO":"999","REV_AT_EPOCH":"7006","MEAN_ELEMENT_THEORY":"SGP4","FILE":"3508857","CLASSIFICATION_TYPE":"U","PERIOD":"95.592","NORAD_CAT_ID":"48142","LAUNCH_DATE":"2021-04-07","OBJECT_NAME":"STARLINK-2485","EPHEMERIS_TYPE":"0","SITE":"AFETR","INCLINATION":"53.0556","TLE_LINE1":"1 48142U 21027BC  22187.90280525  .00006419  00000-0  44946-3 0  9992","PERIAPSIS":"546.269","GP_ID":"207543964","RA_OF_ASC_NODE":"55.1493","MEAN_MOTION":"15.06399465","REF_FRAME":"TEME","MEAN_ANOMALY":"273.2435","ECCENTRICITY":"0.00013660"},{"PERIOD":"95.593","NORAD_CAT_ID":"48143","CLASSIFICATION_TYPE":"U","FILE":"3508782","REV_AT_EPOCH":"7102","MEAN_ELEMENT_THEORY":"SGP4","APOAPSIS":"548.203","ELEMENT_SET_NO":"999","COUNTRY_CODE":"US","INCLINATION":"53.0561","SITE":"AFETR","EPHEMERIS_TYPE":"0","OBJECT_NAME":"STARLINK-2486","LAUNCH_DATE":"2021-04-07","GP_ID":"207538937","PERIAPSIS":"546.275","TLE_LINE1":"1 48143U 21027BD  22187.48764246  .00002558  00000-0  19059-3 0  9990","MEAN_ANOMALY":"281.0253","ECCENTRICITY":"0.00013920","REF_FRAME":"TEME","MEAN_MOTION":"15.06391654","RA_OF_ASC_NODE":"12.0078","ARG_OF_PERICENTER":"79.0892","TIME_SYSTEM":"UTC","OBJECT_ID":"2021-027BD","TLE_LINE2":"2 48143  53.0561  12.0078 0001392  79.0892 281.0253 15.06391654 71021","SEMIMAJOR_AXIS":"6925.374","RCS_SIZE":"LARGE","CENTER_NAME":"EARTH","MEAN_MOTION_DOT":"0.00002558","BSTAR":"0.00019059000000","DECAY_DATE":null,"EPOCH":"2022-07-06T11:42:12.308544","OBJECT_TYPE":"PAYLOAD","MEAN_MOTION_DDOT":"0.0000000000000"},{"DECAY_DATE":null,"MEAN_MOTION_DDOT":"0.0000000000000","EPOCH":"2022-07-06T09:06:19.956960","OBJECT_TYPE":"PAYLOAD","RCS_SIZE":"LARGE","SEMIMAJOR_AXIS":"6925.384","CENTER_NAME":"EARTH","ARG_OF_PERICENTER":"93.2511","TIME_SYSTEM":"UTC","OBJECT_ID":"2021-027BE","TLE_LINE2":"2 48144  53.0562  57.4921 0001487  93.2511 266.8648 15.06388487 70370","BSTAR":"0.00008729900000","MEAN_MOTION_DOT":"0.00001019","TLE_LINE1":"1 48144U 21027BE  22187.37939765  .00001019  00000-0  87299-4 0  9992","GP_ID":"207539187","PERIAPSIS":"546.219","REF_FRAME":"TEME","RA_OF_ASC_NODE":"57.4921","MEAN_MOTION":"15.06388487","MEAN_ANOMALY":"266.8648","ECCENTRICITY":"0.00014870","COUNTRY_CODE":"US","CLASSIFICATION_TYPE":"U","PERIOD":"95.593","NORAD_CAT_ID":"48144","FILE":"3508782","MEAN_ELEMENT_THEORY":"SGP4","REV_AT_EPOCH":"7037","ELEMENT_SET_NO":"999","APOAPSIS":"548.279","EPHEMERIS_TYPE":"0","OBJECT_NAME":"STARLINK-2487","LAUNCH_DATE":"2021-04-07","INCLINATION":"53.0562","SITE":"AFETR"},{"DECAY_DATE":null,"EPOCH":"2022-07-06T01:13:56.578656","OBJECT_TYPE":"PAYLOAD","MEAN_MOTION_DDOT":"0.0000000000000","ARG_OF_PERICENTER":"70.3858","TIME_SYSTEM":"UTC","OBJECT_ID":"2021-027BF","TLE_LINE2":"2 48145  53.0550  58.9690 0001717  70.3858 289.7316 15.06387106 70332","SEMIMAJOR_AXIS":"6925.388","RCS_SIZE":"LARGE","CENTER_NAME":"EARTH","BSTAR":"-0.00001183100000","MEAN_MOTION_DOT":"-0.00000458","GP_ID":"207537936","PERIAPSIS":"546.064","TLE_LINE1":"1 48145U 21027BF  22187.05134929 -.00000458  00000-0 -11831-4 0  9994","MEAN_ANOMALY":"289.7316","ECCENTRICITY":"0.00017170","REF_FRAME":"TEME","MEAN_MOTION":"15.06387106","RA_OF_ASC_NODE":"58.9690","PERIOD":"95.593","NORAD_CAT_ID":"48145","CLASSIFICATION_TYPE":"U","FILE":"3508782","REV_AT_EPOCH":"7033","MEAN_ELEMENT_THEORY":"SGP4","APOAPSIS":"548.442","ELEMENT_SET_NO":"999","COUNTRY_CODE":"US","INCLINATION":"53.0550","SITE":"AFETR","EPHEMERIS_TYPE":"0","OBJECT_NAME":"STARLINK-2488","LAUNCH_DATE":"2021-04-07"},{"DECAY_DATE":null,"EPOCH":"2022-07-06T02:46:48.404064","OBJECT_TYPE":"PAYLOAD","MEAN_MOTION_DDOT":"0.0000000000000","TIME_SYSTEM":"UTC","ARG_OF_PERICENTER":"74.3887","OBJECT_ID":"2021-027BG","TLE_LINE2":"2 48146  53.0542  78.6800 0001670  74.3887 285.7287 15.06403142 70062","SEMIMAJOR_AXIS":"6925.339","RCS_SIZE":"LARGE","CENTER_NAME":"EARTH","MEAN_MOTION_DOT":"0.00002965","BSTAR":"0.00021787000000","GP_ID":"207538186","PERIAPSIS":"546.047","TLE_LINE1":"1 48146U 21027BG  22187.11583801  .00002965  00000-0  21787-3 0  9992","MEAN_ANOMALY":"285.7287","ECCENTRICITY":"0.00016700","REF_FRAME":"TEME","MEAN_MOTION":"15.06403142","RA_OF_ASC_NODE":"78.6800","PERIOD":"95.592","NORAD_CAT_ID":"48146","CLASSIFICATION_TYPE":"U","FILE":"3508782","REV_AT_EPOCH":"7006","MEAN_ELEMENT_THEORY":"SGP4","APOAPSIS":"548.360","ELEMENT_SET_NO":"999","COUNTRY_CODE":"US","INCLINATION":"53.0542","SITE":"AFETR","EPHEMERIS_TYPE":"0","OBJECT_NAME":"STARLINK-2489","LAUNCH_DATE":"2021-04-07"},{"COUNTRY_CODE":"US","PERIOD":"95.593","CLASSIFICATION_TYPE":"U","NORAD_CAT_ID":"48147","FILE":"3508782","REV_AT_EPOCH":"7004","MEAN_ELEMENT_THEORY":"SGP4","ELEMENT_SET_NO":"999","APOAPSIS":"548.587","EPHEMERIS_TYPE":"0","OBJECT_NAME":"STARLINK-2490","LAUNCH_DATE":"2021-04-07","INCLINATION":"53.0555","SITE":"AFETR","TLE_LINE1":"1 48147U 21027BH  22187.44529161  .00001657  00000-0  13017-3 0  9992","GP_ID":"207539436","PERIAPSIS":"545.944","REF_FRAME":"TEME","MEAN_MOTION":"15.06383000","RA_OF_ASC_NODE":"82.1973","MEAN_ANOMALY":"295.6242","ECCENTRICITY":"0.00019080","RCS_SIZE":"LARGE","SEMIMAJOR_AXIS":"6925.401","CENTER_NAME":"EARTH","TIME_SYSTEM":"UTC","ARG_OF_PERICENTER":"64.4944","OBJECT_ID":"2021-027BH","TLE_LINE2":"2 48147  53.0555  82.1973 0001908  64.4944 295.6242 15.06383000 70045","MEAN_MOTION_DOT":"0.00001657","BSTAR":"0.00013017000000","DECAY_DATE":null,"MEAN_MOTION_DDOT":"0.0000000000000","OBJECT_TYPE":"PAYLOAD","EPOCH":"2022-07-06T10:41:13.195104"}];
